NORAD_CAT_ID,OBJECT_NAME,OBJECT_TYPE,EPOCH,MEAN_MOTION,ECCENTRICITY,INCLINATION,RA_OF_ASC_NODE,ARG_OF_PERICENTER,MEAN_ANOMALY,BSTAR,MEAN_MOTION_DOT,MEAN_MOTION_DDOT,TLE_LINE0,TLE_LINE1,TLE_LINE2,SEMIMAJOR_AXIS,PERIOD,APOGEE,PERIGEE,DECAYED
54807.0,STARLINK-5410,PAYLOAD,2023-02-21 14:00:01,15.41386555,0.0001326,53.2149,343.0922,91.5591,39.5605,-0.022521,-0.00880123,0.0,0 STARLINK-5410,1 54807U 22175BB  23052.58334491 -.00880123  00000-0 -22521-1 0  9997,2 54807  53.2149 343.0922 0001326  91.5591  39.5605 15.41386555 10052,6820.153,93.422,442.923,441.114,0.0
54807.0,STARLINK-5410,PAYLOAD,2023-02-22 00:00:00,15.40595169,0.0001359,53.2149,341.1283,95.1329,188.7725,-0.024305,-0.00921427,0.0,0 STARLINK-5410,1 54807U 22175BB  23053.00001157 -.00921427  00000-0 -24305-1 0  9990,2 54807  53.2149 341.1283 0001359  95.1329 188.7725 15.40595169  1306,6822.489,93.47,445.281,443.426,0.0
54807.0,STARLINK-5410,PAYLOAD,2023-02-22 06:00:00,15.40090049,0.0001423,53.215,339.9514,88.3471,142.6482,-0.023456,-0.00878054,0.0,0 STARLINK-5410,1 54807U 22175BB  23053.25001157 -.00878054  00000-0 -23456-1 0  9990,2 54807  53.2150 339.9514 0001423  88.3471 142.6482 15.40090049 10153,6823.98,93.501,446.816,444.874,0.0
54807.0,STARLINK-5410,PAYLOAD,2023-02-22 14:00:01,15.39433342,0.0001303,53.2152,338.3807,99.1112,180.6594,-0.024005,-0.00879147,0.0,0 STARLINK-5410,1 54807U 22175BB  23053.58334491 -.00879147  00000-0 -24005-1 0  9991,2 54807  53.2152 338.3807 0001303  99.1112 180.6594 15.39433342  1300,6825.921,93.541,448.675,446.896,0.0
54807.0,STARLINK-5410,PAYLOAD,2023-02-22 22:00:00,15.38820758,0.0001277,53.2153,336.8138,98.221,229.5212,-0.02646,-0.00943796,0.0,0 STARLINK-5410,1 54807U 22175BB  23053.91667824 -.00943796  00000-0 -26460-1 0  9996,2 54807  53.2153 336.8138 0001277  98.2210 229.5212 15.38820758 10265,6827.732,93.578,450.469,448.725,0.0
54807.0,STARLINK-5410,PAYLOAD,2023-02-23 14:00:01,15.37478248,0.0001254,53.2154,333.683,92.1113,329.2696,-0.025476,-0.00875293,0.0,0 STARLINK-5410,1 54807U 22175BB  23054.58334491 -.00875293  00000-0 -25476-1 0  9993,2 54807  53.2154 333.6830 0001254  92.1113 329.2696 15.37478248 10367,6831.706,93.66,454.428,452.715,0.0
54807.0,STARLINK-5410,PAYLOAD,2023-02-23 22:00:00,15.36866316,0.0001375,53.2154,332.121,89.1716,17.8345,-0.028193,-0.00943352,0.0,0 STARLINK-5410,1 54807U 22175BB  23054.91667824 -.00943352  00000-0 -28193-1 0  9990,2 54807  53.2154 332.1210 0001375  89.1716  17.8345 15.36866316  1303,6833.52,93.697,456.324,454.445,0.0
54807.0,STARLINK-5410,PAYLOAD,2023-02-24 06:00:00,15.36195102,0.0001451,53.2151,330.5608,82.0183,69.8457,-0.027206,-0.008949,0.0,0 STARLINK-5410,1 54807U 22175BB  23055.25001157 -.00894900  00000-0 -27206-1 0  9997,2 54807  53.2151 330.5608 0001451  82.0183  69.8457 15.36195102 10464,6835.51,93.738,458.367,456.383,0.0
54807.0,STARLINK-5410,PAYLOAD,2023-02-24 14:00:01,15.35525885,0.0001407,53.2151,328.9991,93.2032,102.7462,-0.027119,-0.00874661,0.0,0 STARLINK-5410,1 54807U 22175BB  23055.58334491 -.00874661  00000-0 -27119-1 0  9998,2 54807  53.2151 328.9991 0001407  93.2032 102.7462 15.35525885  1308,6837.496,93.779,460.323,458.399,0.0
54807.0,STARLINK-5410,PAYLOAD,2023-02-24 22:00:00,15.34909954,0.0001452,53.2151,327.442,92.6112,146.6182,-0.029824,-0.00937349,0.0,0 STARLINK-5410,1 54807U 22175BB  23055.91667824 -.00937349  00000-0 -29824-1 0  9992,2 54807  53.2151 327.4420 0001452  92.6112 146.6182 15.34909954 10578,6839.325,93.817,462.183,460.197,0.0
54807.0,STARLINK-5410,PAYLOAD,2023-02-25 14:00:01,15.33571509,0.0001273,53.2145,324.3291,97.7176,225.7608,-0.028759,-0.00871528,0.0,0 STARLINK-5410,1 54807U 22175BB  23056.58334491 -.00871528  00000-0 -28759-1 0  9999,2 54807  53.2145 324.3291 0001273  97.7176 225.7608 15.33571509  1303,6843.304,93.898,466.04,464.298,0.0
54807.0,STARLINK-5410,PAYLOAD,2023-02-25 22:00:00,15.32956049,0.0001293,53.2145,322.7767,90.621,273.7912,-0.031725,-0.00936841,0.0,0 STARLINK-5410,1 54807U 22175BB  23056.91667824 -.00936841  00000-0 -31725-1 0  9992,2 54807  53.2145 322.7767 0001293  90.6210 273.7912 15.32956049 10728,6845.135,93.936,467.885,466.115,0.0
54807.0,STARLINK-5410,PAYLOAD,2023-02-26 14:00:01,15.31621655,0.0001256,53.2139,319.6731,92.5426,351.4227,-0.030746,-0.00875671,0.0,0 STARLINK-5410,1 54807U 22175BB  23057.58334491 -.00875671  00000-0 -30746-1 0  9992,2 54807  53.2139 319.6731 0001256  92.5426 351.4227 15.31621655  1304,6849.111,94.018,471.836,470.115,0.0
54807.0,STARLINK-5410,PAYLOAD,2023-02-26 22:00:00,15.30994199,0.0001367,53.2138,318.1254,88.656,33.9018,-0.033246,-0.00924065,0.0,0 STARLINK-5410,1 54807U 22175BB  23057.91667824 -.00924065  00000-0 -33246-1 0  9998,2 54807  53.2138 318.1254 0001367  88.6560  33.9018 15.30994199 10872,6850.982,94.057,473.783,471.91,0.0
54807.0,STARLINK-5410,PAYLOAD,2023-02-27 00:00:00,15.30821211,0.0001398,53.2137,317.7388,90.5472,131.5391,-0.032615,-0.00903456,0.0,0 STARLINK-5410,1 54807U 22175BB  23058.00001157 -.00903456  00000-0 -32615-1 0  9990,2 54807  53.2137 317.7388 0001398  90.5472 131.5391 15.30821211  1303,6851.498,94.067,474.321,472.405,0.0
54807.0,STARLINK-5410,PAYLOAD,2023-02-27 14:00:01,15.29675989,0.000134,53.2132,315.0308,100.0121,97.3974,-0.033099,-0.00886199,0.0,0 STARLINK-5410,1 54807U 22175BB  23058.58334491 -.00886199  00000-0 -33099-1 0  9994,2 54807  53.2132 315.0308 0001340 100.0121  97.3974 15.29675989  1309,6854.917,94.138,477.701,475.864,0.0
54807.0,STARLINK-5410,PAYLOAD,2023-02-27 22:00:01,15.29039392,0.0001424,53.2133,313.4879,96.2044,137.5184,-0.035212,-0.00932831,0.0,0 STARLINK-5410,1 54807U 22175BB  23058.91668981 -.00932831  00000-0 -35212-1 0  9999,2 54807  53.2133 313.4879 0001424  96.2044 137.5184 15.29039392 11031,6856.82,94.177,479.661,477.708,0.0
54807.0,STARLINK-5410,PAYLOAD,2023-02-28 14:00:01,15.27721019,0.0001259,53.2128,310.4025,107.9653,195.8518,-0.034985,-0.00882178,0.0,0 STARLINK-5410,1 54807U 22175BB  23059.58334491 -.00882178  00000-0 -34985-1 0  9993,2 54807  53.2128 310.4025 0001259 107.9653 195.8518 15.27721019  1306,6860.764,94.258,483.493,481.765,0.0
54807.0,STARLINK-5410,PAYLOAD,2023-02-28 22:00:00,15.27086938,0.0001277,53.2129,308.8641,99.9614,237.7571,-0.037361,-0.0093216,0.0,0 STARLINK-5410,1 54807U 22175BB  23059.91667824 -.00932160  00000-0 -37361-1 0  9997,2 54807  53.2129 308.8641 0001277  99.9614 237.7571 15.27086938  1308,6862.663,94.297,485.404,483.652,0.0
54807.0,STARLINK-5410,PAYLOAD,2023-03-01 06:00:00,15.26461295,0.0001203,53.2125,307.326,91.7481,279.0812,-0.03948,-0.00963857,0.0,0 STARLINK-5410,1 54807U 22175BB  23060.25001157 -.00963857  00000-0 -39480-1 0  9998,2 54807  53.2125 307.3260 0001203  91.7481 279.0812 15.26461295 11238,6864.538,94.336,487.229,485.577,0.0
54807.0,STARLINK-5410,PAYLOAD,2023-03-01 22:00:00,15.25136872,0.0001272,53.2126,304.2542,83.1277,351.6091,-0.0398,-0.0093565,0.0,0 STARLINK-5410,1 54807U 22175BB  23060.91667824 -.00935650  00000-0 -39800-1 0  9996,2 54807  53.2126 304.2542 0001272  83.1277 351.6091 15.25136872 11338,6868.511,94.418,491.25,489.503,0.0
54807.0,STARLINK-5410,PAYLOAD,2023-03-02 20:00:01,15.23356114,0.0001308,53.2123,300.04,87.961,339.524,-0.042772,-0.00951874,0.0,0 STARLINK-5410,1 54807U 22175BB  23061.83334491 -.00951874  00000-0 -42772-1 0  9997,2 54807  53.2123 300.0400 0001308  87.9610 339.5240 15.23356114  1303,6873.863,94.528,496.627,494.829,0.0
54807.0,STARLINK-5410,PAYLOAD,2023-03-03 10:00:00,15.22185903,0.000122,53.212,297.3637,94.338,292.7366,-0.041612,-0.00898374,0.0,0 STARLINK-5410,1 54807U 22175BB  23062.41667824 -.00898374  00000-0 -41612-1 0  9998,2 54807  53.2120 297.3637 0001220  94.3380 292.7366 15.22185903 11562,6877.386,94.601,500.09,498.412,0.0
54807.0,STARLINK-5410,PAYLOAD,2023-03-03 14:00:01,15.21870495,0.0001449,53.2118,296.5997,99.5678,121.2236,-0.042281,-0.00903939,0.0,0 STARLINK-5410,1 54807U 22175BB  23062.58334491 -.00903939  00000-0 -42281-1 0  9994,2 54807  53.2118 296.5997 0001449  99.5678 121.2236 15.21870495  1308,6878.336,94.62,501.198,499.204,0.0
54807.0,STARLINK-5410,PAYLOAD,2023-03-03 22:00:00,15.21217984,0.0001419,53.2117,295.0754,92.4117,155.2481,-0.043635,-0.00914272,0.0,0 STARLINK-5410,1 54807U 22175BB  23062.91667824 -.00914272  00000-0 -43635-1 0  9996,2 54807  53.2117 295.0754 0001419  92.4117 155.2481 15.21217984  1306,6880.303,94.661,503.144,501.191,0.0
54807.0,STARLINK-5410,PAYLOAD,2023-03-04 06:00:00,15.20602108,0.000137,53.2113,293.5505,93.8566,179.8724,-0.047315,-0.00969061,0.0,0 STARLINK-5410,1 54807U 22175BB  23063.25001157 -.00969061  00000-0 -47315-1 0  9990,2 54807  53.2113 293.5505 0001370  93.8566 179.8724 15.20602108 11698,6882.16,94.699,504.968,503.082,0.0
54807.0,STARLINK-5410,PAYLOAD,2023-03-04 14:00:01,15.19919504,0.0001334,53.2114,292.0262,104.2972,194.7385,-0.044917,-0.00906485,0.0,0 STARLINK-5410,1 54807U 22175BB  23063.58334491 -.00906485  00000-0 -44917-1 0  9992,2 54807  53.2114 292.0262 0001334 104.2972 194.7385 15.19919504  1306,6884.221,94.742,507.004,505.167,0.0
54807.0,STARLINK-5410,PAYLOAD,2023-03-04 22:00:00,15.19264853,0.0001284,53.2112,290.5065,94.1595,229.3971,-0.046104,-0.00912353,0.0,0 STARLINK-5410,1 54807U 22175BB  23063.91667824 -.00912353  00000-0 -46104-1 0  9999,2 54807  53.2112 290.5065 0001284  94.1595 229.3971 15.19264853 11790,6886.198,94.783,508.947,507.179,0.0
54807.0,STARLINK-5410,PAYLOAD,2023-03-05 14:00:01,15.1796814,0.0001309,53.2108,287.4663,103.0687,267.1703,-0.047645,-0.00908301,0.0,0 STARLINK-5410,1 54807U 22175BB  23064.58334491 -.00908301  00000-0 -47645-1 0  9993,2 54807  53.2108 287.4663 0001309 103.0687 267.1703 15.17968140  1301,6890.119,94.864,512.886,511.082,0.0
54807.0,STARLINK-5410,PAYLOAD,2023-03-05 22:00:00,15.17310883,0.0001286,53.2105,285.9512,91.5139,300.9001,-0.048643,-0.00909766,0.0,0 STARLINK-5410,1 54807U 22175BB  23064.91667824 -.00909766  00000-0 -48643-1 0  9994,2 54807  53.2105 285.9512 0001286  91.5139 300.9001 15.17310883 11944,6892.109,94.905,514.86,513.087,0.0
